     2              NAVIGATION DATA                         RINEX VERSION / TYPE
CCRINEXN V1.6.0 UX  CDDIS               28-SEP-05 02:51     PGM / RUN BY / DATE 
IGS BROADCAST EPHEMERIS FILE                                COMMENT             
    0.1024E-07  0.7451E-08 -0.5960E-07 -0.5960E-07          ION ALPHA           
    0.8806E+05  0.0000E+00 -0.1966E+06 -0.6554E+05          ION BETA            
    0.000000000000E+00 0.266453525910E-14   319488     1342 DELTA-UTC: A0,A1,T,W
    13                                                      LEAP SECONDS        
                                                            END OF HEADER       
 7 05  9 27  8  0  0.0 0.349417328835E-03 0.164845914696E-10 0.000000000000E+00
    0.100000000000E+01 0.215312500000E+02 0.534165107264E-08 0.571394507526E+00
    0.101141631603E-05 0.133703862084E-01 0.685825943947E-05 0.515376334000E+04
    0.201600000000E+06-0.184401869774E-06-0.269446773382E+01-0.372529029846E-07
    0.936011693193E+00 0.233500000000E+03-0.177491157516E+01-0.855071331439E-08
    0.126076680171E-09 0.000000000000E+00 0.134200000000E+04 0.000000000000E+00
    0.000000000000E+00 0.000000000000E+00-0.186264514923E-08 0.257000000000E+03
    0.194490000000E+06 0.000000000000E+00 0.000000000000E+00 0.000000000000E+00
 8 05  9 27  8  0  0.0-0.425158068538E-04-0.113686837722E-11 0.000000000000E+00
    0.157000000000E+03-0.927187500000E+02 0.420374653149E-08-0.149695787595E+01
   -0.488944351673E-05 0.957471621223E-02 0.682845711708E-05 0.515370005417E+04
    0.201600000000E+06-0.121071934700E-06 0.158949722115E+01-0.353902578354E-07
    0.969685399015E+00 0.253843750000E+03 0.257033756947E+01-0.800104756146E-08
    0.121433629627E-10 0.100000000000E+01 0.134200000000E+04 0.000000000000E+00
    0.280000000000E+01 0.000000000000E+00-0.372529029846E-08 0.413000000000E+03
    0.197928000000E+06 0.400000000000E+01 0.000000000000E+00 0.000000000000E+00
10 05  9 27  8  0  0.0 0.707712024450E-04 0.568434188608E-12 0.000000000000E+00
    0.187000000000E+03 0.692187500000E+02 0.416445918073E-08 0.173383743199E+01
    0.375881791115E-05 0.652117095888E-02 0.803731381893E-05 0.515374080849E+04
    0.201600000000E+06-0.502914190292E-07-0.523930370363E+00 0.152736902237E-06
    0.976708541020E+00 0.234375000000E+03 0.358983145820E+00-0.790711507737E-08
   -0.964325882329E-10 0.100000000000E+01 0.134200000000E+04 0.000000000000E+00
    0.200000000000E+01 0.000000000000E+00-0.232830643654E-08 0.699000000000E+03
    0.194418000000E+06 0.400000000000E+01 0.000000000000E+00 0.000000000000E+00
11 05  9 27  8  0  0.0 0.268802046776E-03 0.341060513165E-11 0.000000000000E+00
    0.210000000000E+02 0.126875000000E+02 0.612489798373E-08-0.919348522305E+00
    0.605359673500E-06 0.457067938987E-02 0.634044408798E-05 0.515369265938E+04
    0.201600000000E+06 0.115483999252E-06-0.172293566991E+01-0.335276126862E-07
    0.899887763435E+00 0.223437500000E+03 0.242197712370E+00-0.874929301460E-08
   -0.224295057075E-09 0.000000000000E+00 0.134200000000E+04 0.000000000000E+00
    0.000000000000E+00 0.000000000000E+00-0.121071934700E-07 0.210000000000E+02
    0.194430000000E+06 0.000000000000E+00 0.000000000000E+00 0.000000000000E+00
13 05  9 27  8  0  0.0 0.156783498824E-04 0.181898940355E-11 0.000000000000E+00
    0.147000000000E+03 0.631250000000E+01 0.394230707006E-08 0.156712557421E+01
    0.171363353729E-06 0.264027109370E-02 0.368431210518E-05 0.515365669632E+04
    0.201600000000E+06-0.102445483208E-06 0.522381119636E+00-0.465661287308E-07
    0.989623693845E+00 0.323656250000E+03 0.112842265042E+01-0.795711716016E-08
    0.714315468392E-12 0.100000000000E+01 0.134200000000E+04 0.000000000000E+00
    0.280000000000E+01 0.000000000000E+00-0.116415321827E-07 0.659000000000E+03
    0.194418000000E+06 0.400000000000E+01 0.000000000000E+00 0.000000000000E+00
14 05  9 27  8  0  0.0-0.257948413491E-04 0.454747350886E-12 0.000000000000E+00
    0.155000000000E+03 0.165000000000E+02 0.409231331842E-08 0.805147918808E+00
    0.927597284317E-06 0.204922643024E-02 0.398792326450E-05 0.515357207489E+04
    0.201600000000E+06 0.223517417908E-07 0.510546258667E+00 0.521540641785E-07
    0.983895913134E+00 0.315968750000E+03-0.206037191519E+01-0.805997858760E-08
    0.285726187357E-10 0.000000000000E+00 0.134200000000E+04 0.000000000000E+00
    0.000000000000E+00 0.000000000000E+00-0.931322574615E-08 0.155000000000E+03
    0.195180000000E+06 0.000000000000E+00 0.000000000000E+00 0.000000000000E+00
16 05  9 27  8  0  0.0 0.970857217908E-05 0.909494701773E-12 0.000000000000E+00
    0.155000000000E+03-0.270000000000E+02 0.428803575676E-08-0.297749053049E+01
   -0.139325857163E-05 0.293473061174E-02 0.969506800175E-05 0.515357129097E+04
    0.201600000000E+06 0.353902578354E-07 0.260407144219E+01-0.298023223877E-07
    0.961989152309E+00 0.192812500000E+03-0.100379364271E+01-0.776353766822E-08
    0.226795161215E-09 0.100000000000E+01 0.134200000000E+04 0.000000000000E+00
    0.200000000000E+01 0.000000000000E+00-0.977888703346E-08 0.411000000000E+03
    0.195228000000E+06 0.400000000000E+01 0.000000000000E+00 0.000000000000E+00
18 05  9 27  8  0  0.0-0.190597493201E-03-0.284217094304E-11 0.000000000000E+00
    0.137000000000E+03 0.569062500000E+02 0.440018328530E-08-0.305938138276E+01
    0.292807817459E-05 0.661962537561E-02 0.804848968983E-05 0.515363061714E+04
    0.201600000000E+06-0.109896063805E-06-0.498580677189E+00-0.894069671631E-07
    0.960674416128E+00 0.223750000000E+03-0.274340931584E+01-0.788711424425E-08
   -0.839320675361E-10 0.100000000000E+01 0.134200000000E+04 0.000000000000E+00
    0.200000000000E+01 0.000000000000E+00-0.102445483208E-07 0.393000000000E+03
    0.195828000000E+06 0.400000000000E+01 0.000000000000E+00 0.000000000000E+00
19 05  9 27  8  0  0.0-0.262949615717E-04-0.113686837722E-12 0.000000000000E+00
    0.770000000000E+02 0.203750000000E+02 0.474126892145E-08 0.205709721989E+01
    0.104494392872E-05 0.334661349189E-02 0.640004873276E-05 0.515373382568E+04
    0.201600000000E+06 0.316649675369E-07-0.258045785680E+01-0.540167093277E-07
    0.958936924418E+00 0.254218750000E+03-0.149323307732E+01-0.801140513575E-08
    0.113219001740E-09 0.000000000000E+00 0.134200000000E+04 0.000000000000E+00
    0.000000000000E+00 0.000000000000E+00-0.144354999065E-07 0.333000000000E+03
    0.194820000000E+06 0.000000000000E+00 0.000000000000E+00 0.000000000000E+00
20 05  9 27  8  0  0.0-0.468431971967E-04 0.147792889038E-11 0.000000000000E+00
    0.130000000000E+03 0.601562500000E+02 0.447554356721E-08 0.284192011269E+01
    0.317953526974E-05 0.245686003473E-02 0.723637640476E-05 0.515363126945E+04
    0.201600000000E+06 0.502914190292E-07-0.551243147455E+00-0.577419996262E-07
    0.960322057680E+00 0.237562500000E+03 0.146625143759E+01-0.798140388608E-08
   -0.900037490174E-10 0.000000000000E+00 0.134200000000E+04 0.000000000000E+00
    0.100000000000E+01 0.000000000000E+00-0.698491930962E-08 0.386000000000E+03
    0.195960000000E+06 0.000000000000E+00 0.000000000000E+00 0.000000000000E+00
21 05  9 27  8  0  0.0 0.132874585688E-03 0.329691829393E-11 0.000000000000E+00
    0.112000000000E+03 0.102812500000E+02 0.498092176110E-08-0.165978615143E+01
    0.279396772385E-06 0.104021386942E-01 0.737607479095E-05 0.515360817719E+04
    0.201600000000E+06 0.223517417908E-07-0.154910613929E+01-0.134110450745E-06
    0.946116791048E+00 0.229906250000E+03-0.304856904448E+01-0.819784147300E-08
   -0.155006456641E-09 0.100000000000E+01 0.134200000000E+04 0.000000000000E+00
    0.200000000000E+01 0.000000000000E+00-0.116415321827E-07 0.368000000000E+03
    0.194418000000E+06 0.400000000000E+01 0.000000000000E+00 0.000000000000E+00
22 05  9 27  8  0  0.0 0.420492142439E-04 0.216004991671E-11 0.000000000000E+00
    0.840000000000E+02 0.566562500000E+02 0.453197448921E-08 0.151237573197E+01
    0.290386378765E-05 0.493782234844E-02 0.777654349804E-05 0.515368544006E+04
    0.201600000000E+06-0.502914190292E-07-0.489912571579E+00-0.139698386192E-06
    0.958156510287E+00 0.229406250000E+03-0.159167879627E+01-0.803354891527E-08
   -0.439304013061E-10 0.000000000000E+00 0.134200000000E+04 0.000000000000E+00
    0.000000000000E+00 0.000000000000E+00-0.181607902050E-07 0.840000000000E+02
    0.194730000000E+06 0.000000000000E+00 0.000000000000E+00 0.000000000000E+00
24 05  9 27  8  0  0.0 0.497074797750E-04 0.284217094304E-11 0.000000000000E+00
    0.165000000000E+03 0.226250000000E+02 0.466805158594E-08-0.675250423759E+00
    0.925734639168E-06 0.901314197108E-02 0.764615833759E-05 0.515370034218E+04
    0.201600000000E+06-0.838190317154E-07-0.153942817548E+01-0.819563865662E-07
    0.962793656312E+00 0.236906250000E+03-0.108937934182E+01-0.812748139937E-08
   -0.223580741607E-09 0.000000000000E+00 0.134200000000E+04 0.000000000000E+00
    0.100000000000E+01 0.000000000000E+00-0.139698386192E-08 0.421000000000E+03
    0.194490000000E+06 0.000000000000E+00 0.000000000000E+00 0.000000000000E+00
25 05  9 27  8  0  0.0 0.104211736471E-03 0.909494701773E-12 0.000000000000E+00
    0.680000000000E+02-0.705312500000E+02 0.481555773017E-08-0.114416996583E+01
   -0.358559191227E-05 0.120119173080E-01 0.537559390068E-05 0.515379755402E+04
    0.201600000000E+06-0.193715095520E-06 0.146048348661E+01 0.139698386192E-06
    0.950322743431E+00 0.273968750000E+03-0.143411828545E+01-0.845070914881E-08
   -0.828605943335E-10 0.000000000000E+00 0.134200000000E+04 0.000000000000E+00
    0.400000000000E+01 0.000000000000E+00-0.745058059692E-08 0.324000000000E+03
    0.194400000000E+06 0.400000000000E+01 0.000000000000E+00 0.000000000000E+00
